[{"OBJECT_NAME":"STARLINK-36882","OBJECT_ID":"2026-038V","EPOCH":"2026-03-05T04:00:01.999584","MEAN_MOTION":16.03897672,"ECCENTRICITY":0.0001113,"INCLINATION":97.2737,"RA_OF_ASC_NODE":74.1008,"ARG_OF_PERICENTER":53.0295,"MEAN_ANOMALY":352.5712,"EPHEMERIS_TYPE":0,"CLASSIFICATION_TYPE":"U","NORAD_CAT_ID":67980,"ELEMENT_SET_NO":999,"REV_AT_EPOCH":247,"BSTAR":-0.0023666,"MEAN_MOTION_DOT":-0.01492237,"MEAN_MOTION_DDOT":0.00071947},{"OBJECT_NAME":"STARLINK-36874","OBJECT_ID":"2026-038W","EPOCH":"2026-03-05T04:00:01.999584","MEAN_MOTION":16.04152135,"ECCENTRICITY":0.0001142,"INCLINATION":97.2737,"RA_OF_ASC_NODE":74.103,"ARG_OF_PERICENTER":49.385,"MEAN_ANOMALY":0.9122,"EPHEMERIS_TYPE":0,"CLASSIFICATION_TYPE":"U","NORAD_CAT_ID":67981,"ELEMENT_SET_NO":999,"REV_AT_EPOCH":247,"BSTAR":-0.0023463,"MEAN_MOTION_DOT":-0.01501911,"MEAN_MOTION_DDOT":0.00073041},{"OBJECT_NAME":"STARLINK-36879","OBJECT_ID":"2026-038X","EPOCH":"2026-03-05T04:00:01.999584","MEAN_MOTION":16.04291916,"ECCENTRICITY":0.0001031,"INCLINATION":97.2734,"RA_OF_ASC_NODE":74.104,"ARG_OF_PERICENTER":56.0009,"MEAN_ANOMALY":356.7162,"EPHEMERIS_TYPE":0,"CLASSIFICATION_TYPE":"U","NORAD_CAT_ID":67982,"ELEMENT_SET_NO":999,"REV_AT_EPOCH":247,"BSTAR":-0.0023552,"MEAN_MOTION_DOT":-0.01519999,"MEAN_MOTION_DDOT":0.00074813},{"OBJECT_NAME":"STARLINK-36867","OBJECT_ID":"2026-038Y","EPOCH":"2026-03-05T04:00:01.999584","MEAN_MOTION":16.045566,"ECCENTRICITY":0.0001189,"INCLINATION":97.2732,"RA_OF_ASC_NODE":74.1064,"ARG_OF_PERICENTER":50.1341,"MEAN_ANOMALY":7.492,"EPHEMERIS_TYPE":0,"CLASSIFICATION_TYPE":"U","NORAD_CAT_ID":67983,"ELEMENT_SET_NO":999,"REV_AT_EPOCH":247,"BSTAR":-0.0022959,"MEAN_MOTION_DOT":-0.01505615,"MEAN_MOTION_DDOT":0.00073736},{"OBJECT_NAME":"STARLINK-36266","OBJECT_ID":"2026-038Z","EPOCH":"2026-03-05T04:00:01.999584","MEAN_MOTION":16.04439811,"ECCENTRICITY":0.0001118,"INCLINATION":97.2734,"RA_OF_ASC_NODE":74.1053,"ARG_OF_PERICENTER":49.6966,"MEAN_ANOMALY":5.7047,"EPHEMERIS_TYPE":0,"CLASSIFICATION_TYPE":"U","NORAD_CAT_ID":67984,"ELEMENT_SET_NO":999,"REV_AT_EPOCH":244,"BSTAR":-0.0023208,"MEAN_MOTION_DOT":-0.01511223,"MEAN_MOTION_DDOT":0.00074143},{"OBJECT_NAME":"STARLINK-36802","OBJECT_ID":"2026-038AA","EPOCH":"2026-03-05T04:00:01.999584","MEAN_MOTION":16.0465319,"ECCENTRICITY":0.0001093,"INCLINATION":97.2731,"RA_OF_ASC_NODE":74.107,"ARG_OF_PERICENTER":56.321,"MEAN_ANOMALY":3.3483,"EPHEMERIS_TYPE":0,"CLASSIFICATION_TYPE":"U","NORAD_CAT_ID":67985,"ELEMENT_SET_NO":999,"REV_AT_EPOCH":247,"BSTAR":-0.0022479,"MEAN_MOTION_DOT":-0.0148295,"MEAN_MOTION_DDOT":0.00071767},{"OBJECT_NAME":"STARLINK-36535","OBJECT_ID":"2026-039A","EPOCH":"2026-03-05T04:00:01.999584","MEAN_MOTION":15.97507343,"ECCENTRICITY":0.0001699,"INCLINATION":42.998,"RA_OF_ASC_NODE":83.0163,"ARG_OF_PERICENTER":268.7184,"MEAN_ANOMALY":123.2801,"EPHEMERIS_TYPE":0,"CLASSIFICATION_TYPE":"U","NORAD_CAT_ID":67986,"ELEMENT_SET_NO":999,"REV_AT_EPOCH":215,"BSTAR":-0.0033478,"MEAN_MOTION_DOT":-0.01543063,"MEAN_MOTION_DDOT":0.00070645},{"OBJECT_NAME":"STARLINK-36744","OBJECT_ID":"2026-039B","EPOCH":"2026-03-05T04:00:01.999584","MEAN_MOTION":15.97606819,"ECCENTRICITY":0.0001812,"INCLINATION":42.9978,"RA_OF_ASC_NODE":83.0126,"ARG_OF_PERICENTER":265.9018,"MEAN_ANOMALY":127.4367,"EPHEMERIS_TYPE":0,"CLASSIFICATION_TYPE":"U","NORAD_CAT_ID":67987,"ELEMENT_SET_NO":999,"REV_AT_EPOCH":215,"BSTAR":-0.003255,"MEAN_MOTION_DOT":-0.01509106,"MEAN_MOTION_DDOT":0.00067882},{"OBJECT_NAME":"STARLINK-36734","OBJECT_ID":"2026-039C","EPOCH":"2026-03-05T04:00:01.999584","MEAN_MOTION":15.97762566,"ECCENTRICITY":0.0001826,"INCLINATION":42.9979,"RA_OF_ASC_NODE":83.0084,"ARG_OF_PERICENTER":268.9863,"MEAN_ANOMALY":125.9773,"EPHEMERIS_TYPE":0,"CLASSIFICATION_TYPE":"U","NORAD_CAT_ID":67988,"ELEMENT_SET_NO":999,"REV_AT_EPOCH":215,"BSTAR":-0.0032628,"MEAN_MOTION_DOT":-0.01525682,"MEAN_MOTION_DDOT":0.00069373},{"OBJECT_NAME":"STARLINK-36957","OBJECT_ID":"2026-039D","EPOCH":"2026-03-05T04:00:01.999584","MEAN_MOTION":15.97885446,"ECCENTRICITY":0.0001734,"INCLINATION":42.9976,"RA_OF_ASC_NODE":83.0048,"ARG_OF_PERICENTER":270.3196,"MEAN_ANOMALY":125.9316,"EPHEMERIS_TYPE":0,"CLASSIFICATION_TYPE":"U","NORAD_CAT_ID":67989,"ELEMENT_SET_NO":999,"REV_AT_EPOCH":215,"BSTAR":-0.0032194,"MEAN_MOTION_DOT":-0.01515836,"MEAN_MOTION_DDOT":0.00068639},{"OBJECT_NAME":"STARLINK-36951","OBJECT_ID":"2026-039E","EPOCH":"2026-03-03T14:00:03.000384","MEAN_MOTION":16.0194974,"ECCENTRICITY":0.00018181,"INCLINATION":42.999,"RA_OF_ASC_NODE":92.9652,"ARG_OF_PERICENTER":277.2446,"MEAN_ANOMALY":349.1623,"EPHEMERIS_TYPE":0,"CLASSIFICATION_TYPE":"U","NORAD_CAT_ID":67990,"ELEMENT_SET_NO":999,"REV_AT_EPOCH":189,"BSTAR":-0.0020187153,"MEAN_MOTION_DOT":-0.01203403,"MEAN_MOTION_DDOT":0.00046966207},{"OBJECT_NAME":"STARLINK-36941","OBJECT_ID":"2026-039F","EPOCH":"2026-03-05T04:00:01.999584","MEAN_MOTION":15.98130138,"ECCENTRICITY":0.0001874,"INCLINATION":42.9977,"RA_OF_ASC_NODE":82.9978,"ARG_OF_PERICENTER":267.2493,"MEAN_ANOMALY":131.7297,"EPHEMERIS_TYPE":0,"CLASSIFICATION_TYPE":"U","NORAD_CAT_ID":67991,"ELEMENT_SET_NO":999,"REV_AT_EPOCH":215,"BSTAR":-0.0031142,"MEAN_MOTION_DOT":-0.01486921,"MEAN_MOTION_DDOT":0.00066421},{"OBJECT_NAME":"STARLINK-36950","OBJECT_ID":"2026-039G","EPOCH":"2026-03-05T04:00:01.999584","MEAN_MOTION":15.9824964,"ECCENTRICITY":0.000183,"INCLINATION":42.9978,"RA_OF_ASC_NODE":82.9941,"ARG_OF_PERICENTER":262.9755,"MEAN_ANOMALY":137.5282,"EPHEMERIS_TYPE":0,"CLASSIFICATION_TYPE":"U","NORAD_CAT_ID":67992,"ELEMENT_SET_NO":999,"REV_AT_EPOCH":215,"BSTAR":-0.0030382,"MEAN_MOTION_DOT":-0.01460709,"MEAN_MOTION_DDOT":0.00064366},{"OBJECT_NAME":"STARLINK-36975","OBJECT_ID":"2026-039H","EPOCH":"2026-03-05T04:00:01.999584","MEAN_MOTION":15.98397209,"ECCENTRICITY":0.0001866,"INCLINATION":42.9977,"RA_OF_ASC_NODE":82.9905,"ARG_OF_PERICENTER":269.9496,"MEAN_ANOMALY":131.9453,"EPHEMERIS_TYPE":0,"CLASSIFICATION_TYPE":"U","NORAD_CAT_ID":67993,"ELEMENT_SET_NO":999,"REV_AT_EPOCH":215,"BSTAR":-0.003051,"MEAN_MOTION_DOT":-0.01478852,"MEAN_MOTION_DDOT":0.00065945},{"OBJECT_NAME":"STARLINK-36993","OBJECT_ID":"2026-039J","EPOCH":"2026-03-05T04:00:01.999584","MEAN_MOTION":15.98538437,"ECCENTRICITY":0.0001769,"INCLINATION":42.9978,"RA_OF_ASC_NODE":82.9868,"ARG_OF_PERICENTER":268.0075,"MEAN_ANOMALY":135.4624,"EPHEMERIS_TYPE":0,"CLASSIFICATION_TYPE":"U","NORAD_CAT_ID":67994,"ELEMENT_SET_NO":999,"REV_AT_EPOCH":215,"BSTAR":-0.0030378,"MEAN_MOTION_DOT":-0.01484119,"MEAN_MOTION_DDOT":0.00066477},{"OBJECT_NAME":"STARLINK-36968","OBJECT_ID":"2026-039K","EPOCH":"2026-03-05T04:00:01.999584","MEAN_MOTION":15.98832958,"ECCENTRICITY":0.0001786,"INCLINATION":42.9977,"RA_OF_ASC_NODE":82.9756,"ARG_OF_PERICENTER":270.5003,"MEAN_ANOMALY":137.3188,"EPHEMERIS_TYPE":0,"CLASSIFICATION_TYPE":"U","NORAD_CAT_ID":67995,"ELEMENT_SET_NO":999,"REV_AT_EPOCH":215,"BSTAR":-0.0030214,"MEAN_MOTION_DOT":-0.01500628,"MEAN_MOTION_DDOT":0.00068055}]
